STARLINK-2449           
1 48112U 21027W   24050.96263367 -.00000234  00000+0  32133-5 0  9997
2 48112  53.0545 297.9528 0001453  90.4840 269.6315 15.06398458159095
STARLINK-2450           
1 48113U 21027X   24051.36299603  .00005988  00000+0  42063-3 0  9996
2 48113  53.0555 290.9883 0001564 101.4512 258.6652 15.06391909159610
STARLINK-2452           
1 48115U 21027Z   24051.35286217  .00002060  00000+0  15716-3 0  9997
2 48115  53.0528 281.0466 0001349  90.9396 269.1748 15.06399032159767
STARLINK-2454           
1 48116U 21027AA  24051.35931263  .00004499  00000+0  32073-3 0  9999
2 48116  53.0542 291.0060 0001614  87.2945 272.8229 15.06399502159621
STARLINK-2455           
1 48117U 21027AB  24051.33072413  .00001786  00000+0  13874-3 0  9995
2 48117  53.0541 271.1246 0001474  92.6877 267.4281 15.06399855159904
STARLINK-2458           
1 48118U 21027AC  24051.01097816  .00004465  00000+0  31836-3 0  9990
2 48118  53.0532 272.5666 0001486  87.0222 273.0937 15.06412252159853
STARLINK-2459           
1 48119U 21027AD  24051.80252077  .00001405  00000+0  11316-3 0  9992
2 48119  53.0529 269.0039 0001419  89.1087 271.0064 15.06406853159571
STARLINK-2460           
1 48120U 21027AE  24051.07917924  .00001963  00000+0  15067-3 0  9998
2 48120  53.0550 292.2614 0001513  96.1961 263.9200 15.06397307159595
STARLINK-2462           
1 48121U 21027AF  24050.91791752 -.00003041  00000+0 -18538-3 0  9997
2 48121  53.0548 282.9863 0001642  86.4021 273.7155 15.06391737159305
STARLINK-2463           
1 48122U 21027AG  24051.31461396 -.00001164  00000+0 -59252-4 0  9994
2 48122  53.0533 276.1692 0001489  89.6234 270.4925 15.06397164159832
STARLINK-2464           
1 48123U 21027AH  24051.78871340 -.00000684  00000+0 -27006-4 0  9998
2 48123  53.0533 269.0758 0001673 101.8031 258.3146 15.06410070159566
STARLINK-2465           
1 48124U 21027AJ  24051.32337491  .00001049  00000+0  89295-4 0  9995
2 48124  53.0543 281.1665 0001404  84.8416 275.2733 15.06394919159753
STARLINK-2466           
1 48125U 21027AK  24051.80165313  .00000288  00000+0  38207-4 0  9992
2 48125  53.0536 289.2560 0001403  93.1207 266.9942 15.06398729159290
STARLINK-2467           
1 48126U 21027AL  24050.89303965 -.00000786  00000+0 -33891-4 0  9997
2 48126  53.0540 273.0971 0001474  86.4824 273.6334 15.06396593159434
STARLINK-2468           
1 48127U 21027AM  24051.81268835  .00007460  00000+0  51920-3 0  9993
2 48127  53.0539 288.9720 0001315  80.7447 279.3691 15.06399722159292
STARLINK-2469           
1 48128U 21027AN  24051.72697869  .00000522  00000+0  53957-4 0  9992
2 48128  53.0538 219.4379 0001381  85.2506 274.8641 15.06401101160269
STARLINK-2471           
1 48129U 21027AP  24051.07549250  .00000318  00000+0  40286-4 0  9995
2 48129  53.0550 292.2780 0001451  97.9611 262.1543 15.06389642159583
STARLINK-2472           
1 48130U 21027AQ  24051.39661241  .00001054  00000+0  89738-4 0  9990
2 48130  53.0532 295.8364 0001096 109.5469 250.5638 15.06366717159560
STARLINK-2473           
1 48131U 21027AR  24051.01835972  .00002038  00000+0  15569-3 0  9997
2 48131  53.0530 272.5330 0001481  82.5227 277.5930 15.06397552159851
STARLINK-2474           
1 48132U 21027AS  24051.79424711  .00002584  00000+0  19227-3 0  9999
2 48132  53.0545 289.0509 0001247  95.5833 264.5298 15.06409698159292
STARLINK-2475           
1 48133U 21027AT  24051.39248575  .00004545  00000+0  32382-3 0  9994
2 48133  53.0543 290.8538 0001371  94.0093 266.1053 15.06403002159237
STARLINK-2476           
1 48134U 21027AU  24051.37774393  .00000702  00000+0  66003-4 0  9994
2 48134  53.0551 290.9223 0001896  93.8691 266.2515 15.06400055159231
STARLINK-2478           
1 48135U 21027AV  24051.37914218 -.00000895  00000+0 -41227-4 0  9993
2 48135  53.0539 296.0852 0001347 102.6211 257.4929 15.06387777159552
STARLINK-2479           
1 48136U 21027AW  24051.38517656  .00002903  00000+0  21369-3 0  9994
2 48136  53.0533 291.3912 0001194  90.3440 269.7686 15.06399270159624
STARLINK-2480           
1 48137U 21027AX  24050.89671936 -.00000236  00000+0  30398-5 0  9994
2 48137  53.0534 273.0487 0001412  94.4240 265.6910 15.06399272159836
STARLINK-2481           
1 48138U 21027AY  24051.38880127  .00001771  00000+0  13777-3 0  9998
2 48138  53.0529 290.8751 0001262  81.5990 278.5142 15.06397543159631
STARLINK-2482           
1 48139U 21027AZ  24050.91515146 -.00002845  00000+0 -17222-3 0  9997
2 48139  53.0545 273.0006 0001594 100.2932 259.8236 15.06390675159847
STARLINK-2483           
1 48140U 21027BA  24051.06819398  .00005482  00000+0  38655-3 0  9993
2 48140  53.0545 292.8614 0001412  85.4119 274.7032 15.06409471159578
STARLINK-2484           
1 48141U 21027BB  24051.37036922  .00004566  00000+0  32537-3 0  9997
2 48141  53.0542 290.9572 0001518  96.3986 263.7176 15.06385094159647
STARLINK-2485           
1 48142U 21027BC  24051.30954646 -.00001424  00000+0 -76762-4 0  9994
2 48142  53.0533 271.2267 0001397  92.1493 267.9656 15.06392379159905
STARLINK-2486           
1 48143U 21027BD  24051.76522167  .00002086  00000+0  15884-3 0  9994
2 48143  53.0528 224.2792 0001325  88.0528 272.0613 15.06405583160190
STARLINK-2487           
1 48144U 21027BE  24051.78135026  .00000178  00000+0  30826-4 0  9995
2 48144  53.0541 269.1128 0001507  91.1848 268.9313 15.06400034159576
STARLINK-2488           
1 48145U 21027BF  24051.78503725  .00000026  00000+0  20611-4 0  9994
2 48145  53.0544 269.0940 0001468  90.1157 270.0000 15.06399251159574
STARLINK-2489           
1 48146U 21027BG  24051.36358642  .00004142  00000+0  28428-3 0  9991
2 48146  53.0549 290.7658 0001573 111.2587 248.8571 15.08021884159635
STARLINK-2490           
1 48147U 21027BH  24051.38281072  .00007917  00000+0  55002-3 0  9997
2 48147  53.0540 295.9003 0001693  88.9122 271.2061 15.06382988159161
STARLINK-2491           
1 48148U 21027BJ  24051.35194318  .00004792  00000+0  34043-3 0  9991
2 48148  53.0542 291.0416 0001418  97.6179 262.4971 15.06392660159220
STARLINK-2492           
1 48149U 21027BK  24051.29848537 -.00000231  00000+0  33762-5 0  9998
2 48149  53.0534 271.2772 0001328  96.4533 263.6607 15.06397546159898
STARLINK-2493           
1 48150U 21027BL  24051.30217872  .00002005  00000+0  15344-3 0  9998
2 48150  53.0540 271.2606 0001432  88.7692 271.3461 15.06400628159901
STARLINK-2503           
1 48151U 21027BM  24051.30585993 -.00001189  00000+0 -60981-4 0  9993
2 48151  53.0535 271.2447 0001424  88.7791 271.3361 15.06393467159901
STARLINK-2567           
1 48276U 21036A   24051.61224391  .00010698  00000+0  73575-3 0  9992
2 48276  53.0532 164.8683 0001567  98.3481 261.7686 15.06411968156059
STARLINK-2569           
1 48277U 21036B   24051.48095045  .00014802  00000+0  10099-2 0  9992
2 48277  53.0526 130.4588 0001656  84.3113 275.8065 15.06423486157104
STARLINK-2543           
1 48278U 21036C   24051.51826609  .00020776  00000+0  14092-2 0  9999
2 48278  53.0525 145.3731 0001287  98.5771 261.5364 15.06409361156318
STARLINK-2580           
1 48279U 21036D   24051.57724146  .00014583  00000+0  99515-3 0  9992
2 48279  53.0534 145.0249 0001350  84.6965 275.4178 15.06425836156325
STARLINK-2565           
1 48280U 21036E   24051.76981916  .00000443  00000+0  48635-4 0  9993
2 48280  53.0530 214.1600 0001229  93.8343 266.2786 15.06394549155956
STARLINK-2520           
1 48281U 21036F   24051.58367068 -.00000234  00000+0  31643-5 0  9991
2 48281  53.0554 194.9960 0001434  95.5311 264.5842 15.06408464155629
STARLINK-2558           
1 48282U 21036G   24051.67351004  .00001712  00000+0  13374-3 0  9995
2 48282  53.0532 199.5957 0001110  96.0638 264.0478 15.06405060156150
STARLINK-2516           
1 48283U 21036H   24051.66982739  .00000996  00000+0  85764-4 0  9996
2 48283  53.0539 199.6068 0001321  93.6300 266.4841 15.06407163156151
STARLINK-2564           
1 48284U 21036J   24051.59980494  .00004037  00000+0  28971-3 0  9991
2 48284  53.0524 199.9265 0001342  76.9330 283.1808 15.06401420155550
STARLINK-2548           
1 48285U 21036K   24051.72786640  .00000536  00000+0  54837-4 0  9995
2 48285  53.0549 199.3405 0001201  90.1973 269.9154 15.06400701156157
STARLINK-2547           
1 48286U 21036L   24051.66930556  .00000569  00000+0  59327-4 0  9991
2 48286  53.0546 199.7187 0001247  84.7212 275.3919 15.04773114156149
STARLINK-2566           
1 48287U 21036M   24051.78777894  .00002473  00000+0  18487-3 0  9996
2 48287  53.0534 199.0813 0001051  85.1996 274.9112 15.06391325156167
STARLINK-2562           
1 48288U 21036N   24051.72512906  .00001029  00000+0  87939-4 0  9997
2 48288  53.0533 199.4392 0001462  95.1938 264.9218 15.06404778156158
STARLINK-2545           
1 48289U 21036P   24051.78041240  .00000447  00000+0  48920-4 0  9992
2 48289  53.0545 199.1105 0001270  84.8146 275.2988 15.06401626156163
STARLINK-2540           
1 48290U 21036Q   24051.71037376  .00001280  00000+0  10474-3 0  9990
2 48290  53.0542 199.4247 0001184  78.9729 281.1394 15.06411974156150
STARLINK-2555           
1 48291U 21036R   24051.70669261  .00001073  00000+0  90889-4 0  9993
2 48291  53.0548 199.4427 0001311  90.0896 270.0243 15.06407918156152
STARLINK-2542           
1 48292U 21036S   24051.58507401  .00003906  00000+0  28095-3 0  9993
2 48292  53.0532 200.1526 0001295  96.3367 263.7770 15.06405066155558
STARLINK-2550           
1 48293U 21036T   24051.69931699  .00001412  00000+0  11366-3 0  9999
2 48293  53.0548 199.4728 0001223  86.7187 273.3942 15.06410399156154
STARLINK-2533           
1 48294U 21036U   24051.69563188  .00000132  00000+0  27756-4 0  9993
2 48294  53.0537 199.4914 0001451  93.2595 266.8560 15.06410680156155
STARLINK-2535           
1 48295U 21036V   24051.69194788  .00002402  00000+0  18007-3 0  9990
2 48295  53.0532 199.5092 0001656  89.3895 270.7284 15.06408880156151
